ONEWEB-0289             
1 49079U 21075E   23273.22890405  .00000094  00000+0  20950-3 0  9992
2 49079  87.9252 202.7959 0002059  76.5049 283.6312 13.17647818103707
ONEWEB-0290             
1 49080U 21075F   23273.21202223 -.00000217  00000+0 -59311-3 0  9990
2 49080  87.9175 202.7950 0001866  63.9888 296.1435 13.17649692103112
ONEWEB-0291             
1 49081U 21075G   23273.19515389  .00000094  00000+0  20992-3 0  9992
2 49081  87.9244 202.8081 0001656  66.8301 293.3005 13.17652332103101
ONEWEB-0293             
1 49082U 21075H   23273.22046950  .00000094  00000+0  20997-3 0  9995
2 49082  87.9256 202.7958 0001796  67.5344 292.5978 13.17648415103137
ONEWEB-0294             
1 49083U 21075J   23273.16770287 -.00000819  00000+0 -23119-2 0  9991
2 49083  87.9072 187.7012 0001711  55.1137 305.0153 13.12438571104587
ONEWEB-0295             
1 49084U 21075K   23273.37443998 -.00000145  00000+0 -40717-3 0  9997
2 49084  87.9258 202.7355 0001388  71.6663 288.4620 13.17651687104076
ONEWEB-0296             
1 49085U 21075L   23273.22807496  .00000394  00000+0  10612-2 0  9993
2 49085  87.9068 187.6878 0001062  54.4006 305.7222 13.12439946104591
ONEWEB-0297             
1 49086U 21075M   23273.18147669 -.00000353  00000+0 -10173-2 0  9997
2 49086  87.9078 187.6820 0001923  82.7597 277.3751 13.12443083105190
